{
  "type": "FeatureCollection",
  "features": [
    {
      "type": "Feature",
      "properties": {
        "norad_id": 66472,
        "name": "STARLINK-35567",
        "group": "last-30-days",
        "lat": -1.1275192588881942,
        "lon": 123.01588846776265,
        "alt_km": 390.40121495239146,
        "timestamp": "2025-12-03T15:48:01.919326+00:00",
        "meta_object_name": "STARLINK-35567",
        "meta_object_id": "2025-262S",
        "meta_epoch": "2025-12-03T08:00:01.999872",
        "meta_mean_motion": 15.60447158,
        "meta_eccentricity": 0.00016817,
        "meta_inclination": 42.9992,
        "meta_ra_of_asc_node": 126.1538,
        "meta_arg_of_pericenter": 271.363,
        "meta_mean_anomaly": 60.0004,
        "meta_ephemeris_type": 0,
        "meta_classification_type": "U",
        "meta_norad_cat_id": 66472,
        "meta_element_set_no": 999,
        "meta_rev_at_epoch": 412,
        "meta_bstar": -0.027790828,
        "meta_mean_motion_dot": -0.02054203,
        "meta_mean_motion_ddot": 0,
        "tle_line1": "1 66472U 25262S   25337.33335648 -.02054203  00000+0 -27791-1 0  9991",
        "tle_line2": "2 66472  42.9992 126.1538 0001681 271.3630  60.0004 15.60447158  4124"
      },
      "geometry": {
        "type": "Point",
        "coordinates": [
          123.01588846776265,
          -1.1275192588881942
        ]
      }
    },
    {
      "type": "Feature",
      "properties": {
        "norad_id": 66473,
        "name": "STARLINK-35568",
        "group": "last-30-days",
        "lat": 0.17949795586489956,
        "lon": 124.41377760060419,
        "alt_km": 390.38886546285175,
        "timestamp": "2025-12-03T15:48:01.919334+00:00",
        "meta_object_name": "STARLINK-35568",
        "meta_object_id": "2025-262T",
        "meta_epoch": "2025-12-03T08:00:01.999872",
        "meta_mean_motion": 15.60455749,
        "meta_eccentricity": 0.00016625,
        "meta_inclination": 42.9993,
        "meta_ra_of_asc_node": 126.1488,
        "meta_arg_of_pericenter": 266.7514,
        "meta_mean_anomaly": 66.523,
        "meta_ephemeris_type": 0,
        "meta_classification_type": "U",
        "meta_norad_cat_id": 66473,
        "meta_element_set_no": 999,
        "meta_rev_at_epoch": 412,
        "meta_bstar": -0.027905411,
        "meta_mean_motion_dot": -0.02062167,
        "meta_mean_motion_ddot": 0,
        "tle_line1": "1 66473U 25262T   25337.33335648 -.02062167  00000+0 -27905-1 0  9997",
        "tle_line2": "2 66473  42.9993 126.1488 0001662 266.7514  66.5230 15.60455749  4125"
      },
      "geometry": {
        "type": "Point",
        "coordinates": [
          124.41377760060419,
          0.17949795586489956
        ]
      }
    },
    {
      "type": "Feature",
      "properties": {
        "norad_id": 66474,
        "name": "STARLINK-35620",
        "group": "last-30-days",
        "lat": 1.4879960381286144,
        "lon": 125.8135065757816,
        "alt_km": 390.3165956434159,
        "timestamp": "2025-12-03T15:48:01.919345+00:00",
        "meta_object_name": "STARLINK-35620",
        "meta_object_id": "2025-262U",
        "meta_epoch": "2025-12-03T08:00:01.999872",
        "meta_mean_motion": 15.60439191,
        "meta_eccentricity": 0.00018198,
        "meta_inclination": 42.9994,
        "meta_ra_of_asc_node": 126.1437,
        "meta_arg_of_pericenter": 265.3189,
        "meta_mean_anomaly": 69.8847,
        "meta_ephemeris_type": 0,
        "meta_classification_type": "U",
        "meta_norad_cat_id": 66474,
        "meta_element_set_no": 999,
        "meta_rev_at_epoch": 412,
        "meta_bstar": -0.027667935,
        "meta_mean_motion_dot": -0.02045837,
        "meta_mean_motion_ddot": 0,
        "tle_line1": "1 66474U 25262U   25337.33335648 -.02045837  00000+0 -27668-1 0  9999",
        "tle_line2": "2 66474  42.9994 126.1437 0001819 265.3189  69.8847 15.60439191  4121"
      },
      "geometry": {
        "type": "Point",
        "coordinates": [
          125.8135065757816,
          1.4879960381286144
        ]
      }
    },
    {
      "type": "Feature",
      "properties": {
        "norad_id": 66475,
        "name": "STARLINK-35538",
        "group": "last-30-days",
        "lat": 2.7927181435927535,
        "lon": 127.21285555494966,
        "alt_km": 390.07746827902974,
        "timestamp": "2025-12-03T15:48:01.919353+00:00",
        "meta_object_name": "STARLINK-35538",
        "meta_object_id": "2025-262V",
        "meta_epoch": "2025-12-03T08:00:01.999872",
        "meta_mean_motion": 15.60446865,
        "meta_eccentricity": 0.00017841,
        "meta_inclination": 42.9994,
        "meta_ra_of_asc_node": 126.1397,
        "meta_arg_of_pericenter": 269.0517,
        "meta_mean_anomaly": 68.0615,
        "meta_ephemeris_type": 0,
        "meta_classification_type": "U",
        "meta_norad_cat_id": 66475,
        "meta_element_set_no": 999,
        "meta_rev_at_epoch": 412,
        "meta_bstar": -0.027762998,
        "meta_mean_motion_dot": -0.02052472,
        "meta_mean_motion_ddot": 0,
        "tle_line1": "1 66475U 25262V   25337.33335648 -.02052472  00000+0 -27763-1 0  9999",
        "tle_line2": "2 66475  42.9994 126.1397 0001784 269.0517  68.0615 15.60446865  4124"
      },
      "geometry": {
        "type": "Point",
        "coordinates": [
          127.21285555494966,
          2.7927181435927535
        ]
      }
    },
    {
      "type": "Feature",
      "properties": {
        "norad_id": 66476,
        "name": "STARLINK-35372",
        "group": "last-30-days",
        "lat": 4.0974961206324645,
        "lon": 128.61593452158917,
        "alt_km": 390.02225707889465,
        "timestamp": "2025-12-03T15:48:01.919364+00:00",
        "meta_object_name": "STARLINK-35372",
        "meta_object_id": "2025-262W",
        "meta_epoch": "2025-12-03T08:00:01.999872",
        "meta_mean_motion": 15.60448833,
        "meta_eccentricity": 0.00017231,
        "meta_inclination": 42.9992,
        "meta_ra_of_asc_node": 126.1344,
        "meta_arg_of_pericenter": 266.0292,
        "meta_mean_anomaly": 73.0015,
        "meta_ephemeris_type": 0,
        "meta_classification_type": "U",
        "meta_norad_cat_id": 66476,
        "meta_element_set_no": 999,
        "meta_rev_at_epoch": 401,
        "meta_bstar": -0.027805837,
        "meta_mean_motion_dot": -0.0205532,
        "meta_mean_motion_ddot": 0,
        "tle_line1": "1 66476U 25262W   25337.33335648 -.02055320  00000+0 -27806-1 0  9993",
        "tle_line2": "2 66476  42.9992 126.1344 0001723 266.0292  73.0015 15.60448833  4010"
      },
      "geometry": {
        "type": "Point",
        "coordinates": [
          128.61593452158917,
          4.0974961206324645
        ]
      }
    },
    {
      "type": "Feature",
      "properties": {
        "norad_id": 66477,
        "name": "STARLINK-35354",
        "group": "last-30-days",
        "lat": 6.697996095826217,
        "lon": 131.43667921291453,
        "alt_km": 389.62107555375496,
        "timestamp": "2025-12-03T15:48:01.919373+00:00",
        "meta_object_name": "STARLINK-35354",
        "meta_object_id": "2025-262X",
        "meta_epoch": "2025-12-03T08:00:01.999872",
        "meta_mean_motion": 15.6044975,
        "meta_eccentricity": 0.00016358,
        "meta_inclination": 42.999,
        "meta_ra_of_asc_node": 126.124,
        "meta_arg_of_pericenter": 270.6155,
        "meta_mean_anomaly": 72.2497,
        "meta_ephemeris_type": 0,
        "meta_classification_type": "U",
        "meta_norad_cat_id": 66477,
        "meta_element_set_no": 999,
        "meta_rev_at_epoch": 412,
        "meta_bstar": -0.027839294,
        "meta_mean_motion_dot": -0.02057469,
        "meta_mean_motion_ddot": 0,
        "tle_line1": "1 66477U 25262X   25337.33335648 -.02057469  00000+0 -27839-1 0  9996",
        "tle_line2": "2 66477  42.9990 126.1240 0001635 270.6155  72.2497 15.60449750  4121"
      },
      "geometry": {
        "type": "Point",
        "coordinates": [
          131.43667921291453,
          6.697996095826217
        ]
      }
    },
    {
      "type": "Feature",
      "properties": {
        "norad_id": 66478,
        "name": "STARLINK-35283",
        "group": "last-30-days",
        "lat": 7.993033054368236,
        "lon": 132.85815066553207,
        "alt_km": 389.6086974508016,
        "timestamp": "2025-12-03T15:48:01.919382+00:00",
        "meta_object_name": "STARLINK-35283",
        "meta_object_id": "2025-262Y",
        "meta_epoch": "2025-12-03T08:00:01.999872",
        "meta_mean_motion": 15.60449197,
        "meta_eccentricity": 0.00017889,
        "meta_inclination": 42.9992,
        "meta_ra_of_asc_node": 126.1188,
        "meta_arg_of_pericenter": 266.2628,
        "meta_mean_anomaly": 78.5181,
        "meta_ephemeris_type": 0,
        "meta_classification_type": "U",
        "meta_norad_cat_id": 66478,
        "meta_element_set_no": 999,
        "meta_rev_at_epoch": 412,
        "meta_bstar": -0.027805908,
        "meta_mean_motion_dot": -0.02055404,
        "meta_mean_motion_ddot": 0,
        "tle_line1": "1 66478U 25262Y   25337.33335648 -.02055404  00000+0 -27806-1 0  9998",
        "tle_line2": "2 66478  42.9992 126.1188 0001788 266.2628  78.5181 15.60449197  4124"
      },
      "geometry": {
        "type": "Point",
        "coordinates": [
          132.85815066553207,
          7.993033054368236
        ]
      }
    }
  ]
}